OBJECT_NAME,OBJECT_ID,EPOCH,MEAN_MOTION,ECCENTRICITY,INCLINATION,RA_OF_ASC_NODE,ARG_OF_PERICENTER,MEAN_ANOMALY,EPHEMERIS_TYPE,CLASSIFICATION_TYPE,NORAD_CAT_ID,ELEMENT_SET_NO,REV_AT_EPOCH,BSTAR,MEAN_MOTION_DOT,MEAN_MOTION_DDOT
TANAGER-1,2024-149AR,2026-06-14T05:52:32.508480,15.44927530,.00031559,97.2631,259.5004,314.5808,45.5183,0,U,60507,999,10258,.94297867E-4,.4346E-4,0
EAGLEEYE,2024-149AS,2026-06-14T11:51:59.640192,15.70473224,.00040438,97.3734,258.6838,244.8735,115.2108,0,U,60508,999,10251,.82040643E-3,.101338E-2,0
FLOCK 4BE-29,2024-149AT,2026-06-14T04:46:31.605024,15.44061589,.00014317,97.3822,251.0265,314.6411,45.4721,0,U,60509,999,10195,.40024685E-3,.18211E-3,0
TRANSPORTER-11 OBJECT AU,2024-149AU,2026-06-14T04:46:58.640448,15.40149839,.00023081,97.3737,248.8955,307.4754,52.6282,0,U,60510,999,10185,.36997897E-3,.14761E-3,0
FLOCK 4BE-2,2024-149AV,2026-06-14T05:21:33.239232,15.52420313,.0003126,97.3845,252.4331,265.7294,94.3601,0,U,60511,999,10204,.87793E-3,.53808E-3,0
FLOCK 4BE-13,2024-149AW,2026-06-14T11:52:54.169824,15.41827216,.00027927,97.3726,249.8781,274.4895,85.6033,0,U,60512,999,10195,.33404813E-3,.1408E-3,0
FLOCK 4BE-27,2024-149AX,2026-06-14T04:40:18.395040,15.34400896,.00026918,97.3833,247.0440,331.9861,28.1237,0,U,60513,999,10168,.27468756E-3,.9073E-4,0
FLOCK 4BE-9,2024-149AY,2026-06-14T11:48:54.470304,15.40726098,.00014598,97.3800,249.7374,316.0366,44.0764,0,U,60514,999,10190,.38678967E-3,.15733E-3,0
FLOCK 4BE-6,2024-149BA,2026-06-14T04:39:17.207424,15.39503673,.00020928,97.3799,248.8003,313.2769,46.8302,0,U,60516,999,10181,.36287074E-3,.1417E-3,0
FLOCK 4BE-14,2024-149BB,2026-06-14T13:40:53.026752,15.40919766,.00030513,97.3705,249.3132,306.2666,53.8298,0,U,60517,999,10192,.36065177E-3,.14759E-3,0
FLOCK 4BE-1,2024-149BC,2026-06-14T04:47:14.887968,15.42512522,.00028472,97.3787,250.2059,305.1946,54.9035,0,U,60518,999,10191,.40194897E-3,.1736E-3,0
FLOCK 4BE-28,2024-149BD,2026-06-14T13:00:31.212288,15.44831590,.0002897,97.3755,251.2688,297.8845,62.2110,0,U,60519,999,10203,.35987344E-3,.16797E-3,0
IPERDRONE.0,2024-149BE,2026-06-14T05:45:55.022688,15.66270431,.00034,97.3785,258.3067,233.5709,126.5238,0,U,60520,999,10245,.71736E-3,.7441E-3,0
TRANSPORTER-11 OBJECT BF,2024-149BF,2026-06-14T12:56:37.821696,15.83621875,.00058422,97.3762,261.2745,237.3595,122.7111,0,U,60521,999,10266,.10198563E-2,.22838E-2,0
CONNECTA IOT-2,2024-149BG,2026-06-14T11:42:43.301952,15.23955044,.00057823,97.3844,243.6742,348.4665,11.6439,0,U,60522,999,10148,.18744557E-3,.4465E-4,0
PTD-R (TYVAK-0127),2024-149BH,2026-06-14T13:24:50.707872,16.32013856,.00127787,97.3669,266.4647,267.4101,92.5731,0,U,60523,999,10302,.74886434E-3,.403272E-1,.2482816E-5
CONNECTA IOT-4,2024-149BJ,2026-06-14T11:34:02.174304,15.42054881,.00040022,97.3805,249.8196,298.4648,61.6196,0,U,60524,999,10191,.43754476E-3,.18623E-3,0
ORESAT0.5,2024-149BK,2026-06-14T04:53:23.242272,15.44981148,.00040525,97.3731,251.1577,286.9608,73.1197,0,U,60525,999,10201,.42330393E-3,.19884E-3,0
DEIMOS,2024-149BL,2026-06-14T11:50:40.246368,15.44140817,.0004067,97.3789,251.5939,295.1791,64.9035,0,U,60526,999,10203,.40608799E-3,.18532E-3,0
CUAVA-2,2024-149BM,2026-06-14T11:27:31.550400,15.36063366,.00052896,97.3734,246.9919,307.6815,52.3949,0,U,60527,999,10175,.33709769E-3,.11768E-3,0
ERNST,2024-149BN,2026-06-14T05:51:43.269984,15.39142998,.0004546,97.3817,248.9414,312.9601,47.1263,0,U,60528,999,10182,.37931E-3,.14647E-3,0
TORO,2024-149BQ,2026-06-14T03:55:57.633600,14.96416329,.00016763,97.6790,239.8881,84.7237,275.4175,0,U,60530,999,9950,.20100529E-3,.2221E-4,0
HYPSO-2,2024-149BR,2026-06-14T11:07:22.179360,14.98778744,.00007346,97.6818,241.7645,30.2587,329.8678,0,U,60531,999,9964,.18683887E-3,.2192E-4,0
LEMU NGE,2024-149BS,2026-06-14T10:34:53.892192,14.94947611,.00023396,97.6850,240.4558,68.1841,291.9628,0,U,60532,999,9954,.18145215E-3,.1925E-4,0
LEMUR-2-STELLA,2024-149BT,2026-06-14T04:04:01.991136,15.11753702,.00016434,97.6746,247.6108,94.5801,265.5617,0,U,60533,999,10004,.71531329E-3,.12144E-3,0
SATELIOT_2,2024-149BU,2026-06-14T11:38:44.928672,14.96351710,.00020321,97.6830,240.4903,98.9463,261.1989,0,U,60534,999,9956,.19785377E-3,.2182E-4,0
NIGHTJAR,2024-149BV,2026-06-14T10:55:40.435104,14.99007640,.00015823,97.6853,242.2006,77.5044,282.6356,0,U,60535,999,14246,.18433084E-3,.2175E-4,0
LEMUR-2-MARHISYAM,2024-149BW,2026-06-14T14:41:32.663904,15.11217625,.00034083,97.6890,248.5019,121.2667,238.8897,0,U,60536,999,10009,.60925795E-3,.10179E-3,0
SATELIOT_4,2024-149BX,2026-06-14T03:53:46.525056,14.96660880,.0003424,97.6742,239.7032,68.4288,291.7299,0,U,60537,999,9952,.19654616E-3,.2185E-4,0
PICO-02A021,2024-149BY,2026-06-14T04:06:16.649856,15.03222643,.00049956,97.6750,244.0276,35.2538,324.9016,0,U,60538,999,9928,.41543903E-3,.5564E-4,0
