TANAGER-1               
1 60507U 24149AR  26165.24482070  .00004346  00000+0  94298-4 0  9997
2 60507  97.2631 259.5004 0003155 314.5808  45.5183 15.44927530102588
EAGLEEYE                
1 60508U 24149AS  26165.49444028  .00101338  00000+0  82041-3 0  9997
2 60508  97.3734 258.6838 0004043 244.8735 115.2108 15.70473224102510
FLOCK 4BE-29            
1 60509U 24149AT  26165.19897691  .00018211  00000+0  40025-3 0  9996
2 60509  97.3822 251.0265 0001431 314.6411  45.4721 15.44061589101955
TRANSPORTER-11 OBJECT AU
1 60510U 24149AU  26165.19928982  .00014761  00000+0  36998-3 0  9996
2 60510  97.3737 248.8955 0002308 307.4754  52.6282 15.40149839101858
FLOCK 4BE-2             
1 60511U 24149AV  26165.22330138  .00053808  00000+0  87793-3 0  9995
2 60511  97.3845 252.4331 0003126 265.7294  94.3601 15.52420313102044
FLOCK 4BE-13            
1 60512U 24149AW  26165.49507141  .00014080  00000+0  33405-3 0  9995
2 60512  97.3726 249.8781 0002792 274.4895  85.6033 15.41827216101956
FLOCK 4BE-27            
1 60513U 24149AX  26165.19465735  .00009073  00000+0  27469-3 0  9994
2 60513  97.3833 247.0440 0002691 331.9861  28.1237 15.34400896101689
FLOCK 4BE-9             
1 60514U 24149AY  26165.49229711  .00015733  00000+0  38679-3 0  9995
2 60514  97.3800 249.7374 0001459 316.0366  44.0764 15.40726098101903
FLOCK 4BE-6             
1 60516U 24149BA  26165.19394916  .00014170  00000+0  36287-3 0  9991
2 60516  97.3799 248.8003 0002092 313.2769  46.8302 15.39503673101819
FLOCK 4BE-14            
1 60517U 24149BB  26165.57005818  .00014759  00000+0  36065-3 0  9991
2 60517  97.3705 249.3132 0003051 306.2666  53.8298 15.40919766101920
FLOCK 4BE-1             
1 60518U 24149BC  26165.19947787  .00017360  00000+0  40195-3 0  9990
2 60518  97.3787 250.2059 0002847 305.1946  54.9035 15.42512522101912
FLOCK 4BE-28            
1 60519U 24149BD  26165.54202792  .00016797  00000+0  35987-3 0  9996
2 60519  97.3755 251.2688 0002897 297.8845  62.2110 15.44831590102038
IPERDRONE.0             
1 60520U 24149BE  26165.24022017  .00074410  00000+0  71736-3 0  9993
2 60520  97.3785 258.3067 0003400 233.5709 126.5238 15.66270431102455
TRANSPORTER-11 OBJECT BF
1 60521U 24149BF  26165.53932664  .00228380  00000+0  10199-2 0  9996
2 60521  97.3762 261.2745 0005842 237.3595 122.7111 15.83621875102666
CONNECTA IOT-2          
1 60522U 24149BG  26165.48800118  .00004465  00000+0  18745-3 0  9991
2 60522  97.3844 243.6742 0005782 348.4665  11.6439 15.23955044101484
PTD-R (TYVAK-0127)      
1 60523U 24149BH  26165.55892023  .04032720  24828-5  74886-3 0  9993
2 60523  97.3669 266.4647 0012778 267.4101  92.5731 16.32013856103027
CONNECTA IOT-4          
1 60524U 24149BJ  26165.48196961  .00018623  00000+0  43754-3 0  9996
2 60524  97.3805 249.8196 0004002 298.4648  61.6196 15.42054881101916
ORESAT0.5               
1 60525U 24149BK  26165.20374123  .00019884  00000+0  42330-3 0  9994
2 60525  97.3731 251.1577 0004052 286.9608  73.1197 15.44981148102015
DEIMOS                  
1 60526U 24149BL  26165.49352137  .00018532  00000+0  40609-3 0  9993
2 60526  97.3789 251.5939 0004067 295.1791  64.9035 15.44140817102037
CUAVA-2                 
1 60527U 24149BM  26165.47744850  .00011768  00000+0  33710-3 0  9998
2 60527  97.3734 246.9919 0005289 307.6815  52.3949 15.36063366101754
ERNST                   
1 60528U 24149BN  26165.24425081  .00014647  00000+0  37931-3 0  9994
2 60528  97.3817 248.9414 0004546 312.9601  47.1263 15.39142998101827
TORO                    
1 60530U 24149BQ  26165.16386150  .00002221  00000+0  20101-3 0  9997
2 60530  97.6790 239.8881 0001676  84.7237 275.4175 14.96416329 99503
HYPSO-2                 
1 60531U 24149BR  26165.46345115  .00002192  00000+0  18684-3 0  9997
2 60531  97.6818 241.7645 0000734  30.2587 329.8678 14.98778744 99644
LEMU NGE                
1 60532U 24149BS  26165.44090153  .00001925  00000+0  18145-3 0  9990
2 60532  97.6850 240.4558 0002339  68.1841 291.9628 14.94947611 99546
LEMUR-2-STELLA          
1 60533U 24149BT  26165.16946749  .00012144  00000+0  71531-3 0  9994
2 60533  97.6746 247.6108 0001643  94.5801 265.5617 15.11753702100046
SATELIOT_2              
1 60534U 24149BU  26165.48524223  .00002182  00000+0  19785-3 0  9993
2 60534  97.6830 240.4903 0002032  98.9463 261.1989 14.96351710 99563
NIGHTJAR                
1 60535U 24149BV  26165.45532911  .00002175  00000+0  18433-3 0  9995
2 60535  97.6853 242.2006 0001582  77.5044 282.6356 14.99007640142467
LEMUR-2-MARHISYAM       
1 60536U 24149BW  26165.61218361  .00010179  00000+0  60926-3 0  9991
2 60536  97.6890 248.5019 0003408 121.2667 238.8897 15.11217625100096
SATELIOT_4              
1 60537U 24149BX  26165.16234404  .00002185  00000+0  19655-3 0  9999
2 60537  97.6742 239.7032 0003424  68.4288 291.7299 14.96660880 99525
PICO-02A021             
1 60538U 24149BY  26165.17102604  .00005564  00000+0  41544-3 0  9993
2 60538  97.6750 244.0276 0004995  35.2538 324.9016 15.03222643 99287
